{"fetched_at":"2026-03-29T02:12:04Z","count":15717,"tles":[{"name":"STARLINK-36950","line1":"1 67992U 26039G   26087.30276449 -.00093198  00000+0 -16885-2 0  9992","line2":"2 67992  42.9996 304.3842 0002814 322.3667  37.6995 15.49089084  4542","category":"Starlink"}]}